start=new Date('2022-01-26T00:00:00.000Z').valueOf();
sats=[{"ECCENTRICITY":"0.00012450","APOAPSIS":"548.078","NORAD_CAT_ID":"46534","OBJECT_NAME":"STARLINK-1659","SEMIMAJOR_AXIS":"6925.351","BSTAR":"-0.00005207700000","CLASSIFICATION_TYPE":"U","EPHEMERIS_TYPE":"0","INCLINATION":"53.0549","COUNTRY_CODE":"US","DECAY_DATE":null,"RA_OF_ASC_NODE":"87.5806","REF_FRAME":"TEME","MEAN_ELEMENT_THEORY":"SGP4","TLE_LINE1":"1 46534U 20070C   22025.85738744 -.00001057  00000-0 -52077-4 0  9998","OBJECT_TYPE":"PAYLOAD","MEAN_MOTION_DOT":"-0.00001057","EPOCH":"2022-01-25T20:34:38.274816","REV_AT_EPOCH":"7284","LAUNCH_DATE":"2020-10-06","CENTER_NAME":"EARTH","PERIOD":"95.592","TLE_LINE2":"2 46534  53.0549  87.5806 0001245  71.9201 288.1923 15.06399285 72848","SITE":"AFETR","ARG_OF_PERICENTER":"71.9201","TIME_SYSTEM":"UTC","MEAN_MOTION_DDOT":"0.0000000000000","MEAN_ANOMALY":"288.1923","OBJECT_ID":"2020-070C","FILE":"3283711","MEAN_MOTION":"15.06399285","RCS_SIZE":"LARGE","GP_ID":"194643003","PERIAPSIS":"546.354","ELEMENT_SET_NO":"999"},{"PERIOD":"95.592","TLE_LINE2":"2 46535  53.0545  88.8299 0001261  75.5035 284.6094 15.06397288 72793","SITE":"AFETR","ARG_OF_PERICENTER":"75.5035","TIME_SYSTEM":"UTC","MEAN_MOTION_DDOT":"0.0000000000000","MEAN_ANOMALY":"284.6094","OBJECT_ID":"2020-070D","FILE":"3283407","MEAN_MOTION":"15.06397288","RCS_SIZE":"LARGE","GP_ID":"194610365","PERIAPSIS":"546.349","ELEMENT_SET_NO":"999","ECCENTRICITY":"0.00012610","APOAPSIS":"548.095","NORAD_CAT_ID":"46535","OBJECT_NAME":"STARLINK-1663","SEMIMAJOR_AXIS":"6925.357","EPHEMERIS_TYPE":"0","BSTAR":"-0.00006506100000","INCLINATION":"53.0545","CLASSIFICATION_TYPE":"U","COUNTRY_CODE":"US","DECAY_DATE":null,"RA_OF_ASC_NODE":"88.8299","REF_FRAME":"TEME","MEAN_ELEMENT_THEORY":"SGP4","TLE_LINE1":"1 46535U 20070D   22025.58093974 -.00001250  00000-0 -65061-4 0  9990","OBJECT_TYPE":"PAYLOAD","MEAN_MOTION_DOT":"-0.00001250","REV_AT_EPOCH":"7279","EPOCH":"2022-01-25T13:56:33.193536","LAUNCH_DATE":"2020-10-06","CENTER_NAME":"EARTH"},{"GP_ID":"194610609","PERIAPSIS":"300.234","ELEMENT_SET_NO":"999","MEAN_MOTION":"15.86816249","RCS_SIZE":"LARGE","FILE":"3283407","OBJECT_ID":"2020-070E","MEAN_MOTION_DDOT":"0.0000000000000","MEAN_ANOMALY":"315.6399","SITE":"AFETR","TIME_SYSTEM":"UTC","ARG_OF_PERICENTER":"44.5942","PERIOD":"90.748","TLE_LINE2":"2 46536  53.0503  20.2200 0016420  44.5942 315.6399 15.86816249 73735","CENTER_NAME":"EARTH","LAUNCH_DATE":"2020-10-06","REF_FRAME":"TEME","MEAN_ELEMENT_THEORY":"SGP4","TLE_LINE1":"1 46536U 20070E   22025.26002503  .00143955  00000-0  53822-3 0  9992","EPOCH":"2022-01-25T06:14:26.162592","OBJECT_TYPE":"PAYLOAD","MEAN_MOTION_DOT":"0.00143955","REV_AT_EPOCH":"7373","DECAY_DATE":null,"RA_OF_ASC_NODE":"20.2200","COUNTRY_CODE":"US","OBJECT_NAME":"STARLINK-1668","SEMIMAJOR_AXIS":"6689.352","INCLINATION":"53.0503","BSTAR":"0.00053822000000","CLASSIFICATION_TYPE":"U","EPHEMERIS_TYPE":"0","APOAPSIS":"322.201","ECCENTRICITY":"0.00164200","NORAD_CAT_ID":"46536"},{"GP_ID":"194619435","ELEMENT_SET_NO":"999","PERIAPSIS":"546.245","FILE":"3283603","MEAN_MOTION":"15.06408823","RCS_SIZE":"LARGE","MEAN_MOTION_DDOT":"0.0000000000000","MEAN_ANOMALY":"274.5795","OBJECT_ID":"2020-070F","PERIOD":"95.592","TLE_LINE2":"2 46537  53.0540  89.0084 0001360  85.5350 274.5795 15.06408823 72509","SITE":"AFETR","ARG_OF_PERICENTER":"85.5350","TIME_SYSTEM":"UTC","CENTER_NAME":"EARTH","TLE_LINE1":"1 46537U 20070F   22025.54038670 -.00000616  00000-0 -22456-4 0  9996","MEAN_ELEMENT_THEORY":"SGP4","REF_FRAME":"TEME","OBJECT_TYPE":"PAYLOAD","MEAN_MOTION_DOT":"-0.00000616","REV_AT_EPOCH":"7250","EPOCH":"2022-01-25T12:58:09.410880","LAUNCH_DATE":"2020-10-06","COUNTRY_CODE":"US","DECAY_DATE":null,"RA_OF_ASC_NODE":"89.0084","NORAD_CAT_ID":"46537","APOAPSIS":"548.128","ECCENTRICITY":"0.00013600","OBJECT_NAME":"STARLINK-1672","EPHEMERIS_TYPE":"0","BSTAR":"-0.00002245600000","CLASSIFICATION_TYPE":"U","INCLINATION":"53.0540","SEMIMAJOR_AXIS":"6925.322"},{"NORAD_CAT_ID":"46538","APOAPSIS":"548.144","ECCENTRICITY":"0.00013100","OBJECT_NAME":"STARLINK-1678","CLASSIFICATION_TYPE":"U","BSTAR":"-0.00004770100000","EPHEMERIS_TYPE":"0","INCLINATION":"53.0541","SEMIMAJOR_AXIS":"6925.372","COUNTRY_CODE":"US","DECAY_DATE":null,"RA_OF_ASC_NODE":"88.8096","TLE_LINE1":"1 46538U 20070G   22025.58461815 -.00000992  00000-0 -47701-4 0  9999","MEAN_ELEMENT_THEORY":"SGP4","REF_FRAME":"TEME","REV_AT_EPOCH":"7250","OBJECT_TYPE":"PAYLOAD","MEAN_MOTION_DOT":"-0.00000992","EPOCH":"2022-01-25T14:01:51.008160","LAUNCH_DATE":"2020-10-06","CENTER_NAME":"EARTH","PERIOD":"95.593","TLE_LINE2":"2 46538  53.0541  88.8096 0001310  69.0529 291.0600 15.06392402 72505","SITE":"AFETR","ARG_OF_PERICENTER":"69.0529","TIME_SYSTEM":"UTC","MEAN_MOTION_DDOT":"0.0000000000000","MEAN_ANOMALY":"291.0600","OBJECT_ID":"2020-070G","FILE":"3283684","MEAN_MOTION":"15.06392402","RCS_SIZE":"LARGE","GP_ID":"194620983","ELEMENT_SET_NO":"999","PERIAPSIS":"546.330"},{"CENTER_NAME":"EARTH","LAUNCH_DATE":"2020-10-06","MEAN_MOTION_DOT":"0.00159247","OBJECT_TYPE":"PAYLOAD","EPOCH":"2022-01-25T12:03:33.193728","REV_AT_EPOCH":"7266","REF_FRAME":"TEME","MEAN_ELEMENT_THEORY":"SGP4","TLE_LINE1":"1 46539U 20070H   22025.50246752  .00159247  00000-0  22659-2 0  9992","RA_OF_ASC_NODE":"77.8009","DECAY_DATE":null,"COUNTRY_CODE":"US","SEMIMAJOR_AXIS":"6779.326","EPHEMERIS_TYPE":"0","BSTAR":"0.00226590000000","CLASSIFICATION_TYPE":"U","INCLINATION":"53.0491","OBJECT_NAME":"STARLINK-1684","APOAPSIS":"402.385","ECCENTRICITY":"0.00017610","NORAD_CAT_ID":"46539","PERIAPSIS":"399.998","ELEMENT_SET_NO":"999","GP_ID":"194620702","RCS_SIZE":"LARGE","MEAN_MOTION":"15.55331387","FILE":"3283675","OBJECT_ID":"2020-070H","MEAN_ANOMALY":"324.4177","MEAN_MOTION_DDOT":"0.0000000000000","ARG_OF_PERICENTER":"35.6951","TIME_SYSTEM":"UTC","SITE":"AFETR","TLE_LINE2":"2 46539  53.0491  77.8009 0001761  35.6951 324.4177 15.55331387 72666","PERIOD":"92.585"},{"RA_OF_ASC_NODE":"67.6994","DECAY_DATE":null,"COUNTRY_CODE":"US","EPHEMERIS_TYPE":"0","BSTAR":"-0.00010615000000","INCLINATION":"53.0552","CLASSIFICATION_TYPE":"U","SEMIMAJOR_AXIS":"6925.381","OBJECT_NAME":"STARLINK-1687","NORAD_CAT_ID":"46541","APOAPSIS":"548.227","ECCENTRICITY":"0.00014170","CENTER_NAME":"EARTH","LAUNCH_DATE":"2020-10-06","OBJECT_TYPE":"PAYLOAD","MEAN_MOTION_DOT":"-0.00001862","EPOCH":"2022-01-25T19:54:49.488480","REV_AT_EPOCH":"7311","MEAN_ELEMENT_THEORY":"SGP4","TLE_LINE1":"1 46541U 20070K   22025.82973945 -.00001862  00000-0 -10615-3 0  9992","REF_FRAME":"TEME","OBJECT_ID":"2020-070K","MEAN_ANOMALY":"277.0151","MEAN_MOTION_DDOT":"0.0000000000000","ARG_OF_PERICENTER":"83.0999","TIME_SYSTEM":"UTC","SITE":"AFETR","TLE_LINE2":"2 46541  53.0552  67.6994 0001417  83.0999 277.0151 15.06389449 73118","PERIOD":"95.593","ELEMENT_SET_NO":"999","PERIAPSIS":"546.265","GP_ID":"194644005","RCS_SIZE":"LARGE","MEAN_MOTION":"15.06389449","FILE":"3283711"},{"RCS_SIZE":"LARGE","MEAN_MOTION":"15.06376378","FILE":"3283407","ELEMENT_SET_NO":"999","PERIAPSIS":"546.266","GP_ID":"194611865","ARG_OF_PERICENTER":"86.3701","TIME_SYSTEM":"UTC","SITE":"AFETR","TLE_LINE2":"2 46542  53.0546  88.8930 0001473  86.3701 273.7457 15.06376378 72798","PERIOD":"95.594","OBJECT_ID":"2020-070L","MEAN_ANOMALY":"273.7457","MEAN_MOTION_DDOT":"0.0000000000000","LAUNCH_DATE":"2020-10-06","OBJECT_TYPE":"PAYLOAD","MEAN_MOTION_DOT":"0.00002698","REV_AT_EPOCH":"7279","EPOCH":"2022-01-25T13:35:19.911552","MEAN_ELEMENT_THEORY":"SGP4","TLE_LINE1":"1 46542U 20070L   22025.56620268  .00002698  00000-0  20010-3 0  9997","REF_FRAME":"TEME","CENTER_NAME":"EARTH","BSTAR":"0.00020010000000","INCLINATION":"53.0546","EPHEMERIS_TYPE":"0","CLASSIFICATION_TYPE":"U","SEMIMAJOR_AXIS":"6925.421","OBJECT_NAME":"STARLINK-1692","NORAD_CAT_ID":"46542","ECCENTRICITY":"0.00014730","APOAPSIS":"548.306","RA_OF_ASC_NODE":"88.8930","DECAY_DATE":null,"COUNTRY_CODE":"US"},{"LAUNCH_DATE":"2020-10-06","OBJECT_TYPE":"PAYLOAD","MEAN_MOTION_DOT":"-0.00000857","REV_AT_EPOCH":"7281","EPOCH":"2022-01-25T13:14:05.275680","TLE_LINE1":"1 46543U 20070M   22025.55144995 -.00000857  00000-0 -38655-4 0  9997","MEAN_ELEMENT_THEORY":"SGP4","REF_FRAME":"TEME","CENTER_NAME":"EARTH","BSTAR":"-0.00003865500000","INCLINATION":"53.0545","EPHEMERIS_TYPE":"0","CLASSIFICATION_TYPE":"U","SEMIMAJOR_AXIS":"6925.372","OBJECT_NAME":"STARLINK-1693","NORAD_CAT_ID":"46543","APOAPSIS":"548.184","ECCENTRICITY":"0.00013680","RA_OF_ASC_NODE":"88.9504","DECAY_DATE":null,"COUNTRY_CODE":"US","RCS_SIZE":"LARGE","MEAN_MOTION":"15.06392370","FILE":"3283675","ELEMENT_SET_NO":"999","PERIAPSIS":"546.290","GP_ID":"194620715","TIME_SYSTEM":"UTC","ARG_OF_PERICENTER":"58.3474","SITE":"AFETR","TLE_LINE2":"2 46543  53.0545  88.9504 0001368  58.3474 301.7648 15.06392370 72812","PERIOD":"95.593","OBJECT_ID":"2020-070M","MEAN_ANOMALY":"301.7648","MEAN_MOTION_DDOT":"0.0000000000000"},{"OBJECT_ID":"2020-070N","MEAN_MOTION_DDOT":"0.0000000000000","MEAN_ANOMALY":"298.8118","SITE":"AFETR","ARG_OF_PERICENTER":"61.3020","TIME_SYSTEM":"UTC","PERIOD":"95.592","TLE_LINE2":"2 46544  53.0555  73.6798 0001477  61.3020 298.8118 15.06394388 73014","GP_ID":"194643254","PERIAPSIS":"546.208","ELEMENT_SET_NO":"999","MEAN_MOTION":"15.06394388","RCS_SIZE":"LARGE","FILE":"3283711","DECAY_DATE":null,"RA_OF_ASC_NODE":"73.6798","COUNTRY_CODE":"US","OBJECT_NAME":"STARLINK-1694","SEMIMAJOR_AXIS":"6925.366","BSTAR":"-0.00003660200000","CLASSIFICATION_TYPE":"U","INCLINATION":"53.0555","EPHEMERIS_TYPE":"0","ECCENTRICITY":"0.00014770","APOAPSIS":"548.254","NORAD_CAT_ID":"46544","CENTER_NAME":"EARTH","LAUNCH_DATE":"2020-10-06","REF_FRAME":"TEME","TLE_LINE1":"1 46544U 20070N   22025.61365088 -.00000827  00000-0 -36602-4 0  9990","MEAN_ELEMENT_THEORY":"SGP4","OBJECT_TYPE":"PAYLOAD","EPOCH":"2022-01-25T14:43:39.436032","MEAN_MOTION_DOT":"-0.00000827","REV_AT_EPOCH":"7301"}];
